[{"OBJECT_NAME":"COSMOS 2523","OBJECT_ID":"2017-037E","EPOCH":"2026-03-09T23:01:03.762912","MEAN_MOTION":14.95066265,"ECCENTRICITY":0.0066686,"INCLINATION":97.5062,"RA_OF_ASC_NODE":86.2978,"ARG_OF_PERICENTER":201.8356,"MEAN_ANOMALY":158.0021,"EPHEMERIS_TYPE":0,"CLASSIFICATION_TYPE":"U","NORAD_CAT_ID":42986,"ELEMENT_SET_NO":999,"REV_AT_EPOCH":45413,"BSTAR":0.00015362789,"MEAN_MOTION_DOT":1.699e-5,"MEAN_MOTION_DDOT":0},{"OBJECT_NAME":"STARLINK-3179","OBJECT_ID":"2022-005AP","EPOCH":"2026-03-09T21:36:45.370368","MEAN_MOTION":15.08841794,"ECCENTRICITY":0.00014235,"INCLINATION":53.2168,"RA_OF_ASC_NODE":298.1791,"ARG_OF_PERICENTER":103.3992,"MEAN_ANOMALY":256.7159,"EPHEMERIS_TYPE":0,"CLASSIFICATION_TYPE":"U","NORAD_CAT_ID":51141,"ELEMENT_SET_NO":999,"REV_AT_EPOCH":22877,"BSTAR":9.8107655e-5,"MEAN_MOTION_DOT":1.274e-5,"MEAN_MOTION_DDOT":0}]
